[{"OBJECT_NAME":"COSMOS 2251 DEB","OBJECT_ID":"1993-036PR","EPOCH":"2026-03-03T02:15:10.049184","MEAN_MOTION":14.71037037,"ECCENTRICITY":0.0022782,"INCLINATION":74.0188,"RA_OF_ASC_NODE":293.5398,"ARG_OF_PERICENTER":191.0695,"MEAN_ANOMALY":289.9512,"EPHEMERIS_TYPE":0,"CLASSIFICATION_TYPE":"U","NORAD_CAT_ID":34343,"ELEMENT_SET_NO":999,"REV_AT_EPOCH":89911,"BSTAR":0.0012605,"MEAN_MOTION_DOT":7.748e-5,"MEAN_MOTION_DDOT":0},{"OBJECT_NAME":"COSMOS 2251 DEB","OBJECT_ID":"1993-036PS","EPOCH":"2026-03-02T22:19:10.467264","MEAN_MOTION":14.17039121,"ECCENTRICITY":0.0154568,"INCLINATION":73.9794,"RA_OF_ASC_NODE":327.1096,"ARG_OF_PERICENTER":134.2341,"MEAN_ANOMALY":356.3304,"EPHEMERIS_TYPE":0,"CLASSIFICATION_TYPE":"U","NORAD_CAT_ID":34344,"ELEMENT_SET_NO":999,"REV_AT_EPOCH":87232,"BSTAR":0.0014754,"MEAN_MOTION_DOT":3.313e-5,"MEAN_MOTION_DDOT":0},{"OBJECT_NAME":"COSMOS 2251 DEB","OBJECT_ID":"1993-036PU","EPOCH":"2026-03-02T08:37:33.190752","MEAN_MOTION":14.00009325,"ECCENTRICITY":0.02086631,"INCLINATION":73.9941,"RA_OF_ASC_NODE":174.0499,"ARG_OF_PERICENTER":334.462,"MEAN_ANOMALY":80.2087,"EPHEMERIS_TYPE":0,"CLASSIFICATION_TYPE":"U","NORAD_CAT_ID":34346,"ELEMENT_SET_NO":999,"REV_AT_EPOCH":86524,"BSTAR":0.0007470943,"MEAN_MOTION_DOT":1.302e-5,"MEAN_MOTION_DDOT":0},{"OBJECT_NAME":"COSMOS 2251 DEB","OBJECT_ID":"1993-036PY","EPOCH":"2026-03-03T03:45:42.751584","MEAN_MOTION":15.21333405,"ECCENTRICITY":0.0013254,"INCLINATION":74.0265,"RA_OF_ASC_NODE":130.4012,"ARG_OF_PERICENTER":294.565,"MEAN_ANOMALY":93.1603,"EPHEMERIS_TYPE":0,"CLASSIFICATION_TYPE":"U","NORAD_CAT_ID":34383,"ELEMENT_SET_NO":999,"REV_AT_EPOCH":90331,"BSTAR":0.0036375,"MEAN_MOTION_DOT":0.00082556,"MEAN_MOTION_DDOT":0},{"OBJECT_NAME":"COSMOS 2251 DEB","OBJECT_ID":"1993-036QC","EPOCH":"2026-03-03T02:14:32.745120","MEAN_MOTION":14.44047328,"ECCENTRICITY":0.003687,"INCLINATION":74.0388,"RA_OF_ASC_NODE":62.5117,"ARG_OF_PERICENTER":143.3482,"MEAN_ANOMALY":280.7209,"EPHEMERIS_TYPE":0,"CLASSIFICATION_TYPE":"U","NORAD_CAT_ID":34387,"ELEMENT_SET_NO":999,"REV_AT_EPOCH":89341,"BSTAR":0.00031411,"MEAN_MOTION_DOT":1.057e-5,"MEAN_MOTION_DDOT":0},{"OBJECT_NAME":"COSMOS 2251 DEB","OBJECT_ID":"1993-036QD","EPOCH":"2026-03-03T03:03:12.178656","MEAN_MOTION":14.49887756,"ECCENTRICITY":0.001006,"INCLINATION":74.0372,"RA_OF_ASC_NODE":72.2707,"ARG_OF_PERICENTER":107.7267,"MEAN_ANOMALY":320.1728,"EPHEMERIS_TYPE":0,"CLASSIFICATION_TYPE":"U","NORAD_CAT_ID":34388,"ELEMENT_SET_NO":999,"REV_AT_EPOCH":89320,"BSTAR":0.00074374,"MEAN_MOTION_DOT":2.849e-5,"MEAN_MOTION_DDOT":0},{"OBJECT_NAME":"COSMOS 2251 DEB","OBJECT_ID":"1993-036QE","EPOCH":"2026-03-03T03:34:51.703392","MEAN_MOTION":14.4177311,"ECCENTRICITY":0.0029884,"INCLINATION":74.0166,"RA_OF_ASC_NODE":100.6865,"ARG_OF_PERICENTER":199.9301,"MEAN_ANOMALY":216.804,"EPHEMERIS_TYPE":0,"CLASSIFICATION_TYPE":"U","NORAD_CAT_ID":34389,"ELEMENT_SET_NO":999,"REV_AT_EPOCH":89171,"BSTAR":0.00036071,"MEAN_MOTION_DOT":1.158e-5,"MEAN_MOTION_DDOT":0},{"OBJECT_NAME":"COSMOS 2251 DEB","OBJECT_ID":"1993-036QM","EPOCH":"2026-03-03T03:49:58.277856","MEAN_MOTION":14.76917644,"ECCENTRICITY":0.0004899,"INCLINATION":74.0305,"RA_OF_ASC_NODE":326.6397,"ARG_OF_PERICENTER":329.7477,"MEAN_ANOMALY":180.5252,"EPHEMERIS_TYPE":0,"CLASSIFICATION_TYPE":"U","NORAD_CAT_ID":34396,"ELEMENT_SET_NO":999,"REV_AT_EPOCH":89532,"BSTAR":0.0020412,"MEAN_MOTION_DOT":0.00014362,"MEAN_MOTION_DDOT":0},{"OBJECT_NAME":"COSMOS 2251 DEB","OBJECT_ID":"1993-036RA","EPOCH":"2026-03-02T16:49:09.211584","MEAN_MOTION":14.58236681,"ECCENTRICITY":0.00807223,"INCLINATION":74.0637,"RA_OF_ASC_NODE":154.9512,"ARG_OF_PERICENTER":210.4194,"MEAN_ANOMALY":274.5045,"EPHEMERIS_TYPE":0,"CLASSIFICATION_TYPE":"U","NORAD_CAT_ID":34409,"ELEMENT_SET_NO":999,"REV_AT_EPOCH":90358,"BSTAR":0.00026683742,"MEAN_MOTION_DOT":1.257e-5,"MEAN_MOTION_DDOT":0},{"OBJECT_NAME":"COSMOS 2251 DEB","OBJECT_ID":"1993-036RB","EPOCH":"2026-03-02T12:12:37.330560","MEAN_MOTION":15.29440376,"ECCENTRICITY":0.00263781,"INCLINATION":73.7306,"RA_OF_ASC_NODE":90.4681,"ARG_OF_PERICENTER":279.9186,"MEAN_ANOMALY":79.9037,"EPHEMERIS_TYPE":0,"CLASSIFICATION_TYPE":"U","NORAD_CAT_ID":34410,"ELEMENT_SET_NO":999,"REV_AT_EPOCH":90989,"BSTAR":0.0027714717,"MEAN_MOTION_DOT":0.00080786,"MEAN_MOTION_DDOT":0},{"OBJECT_NAME":"COSMOS 2251 DEB","OBJECT_ID":"1993-036RD","EPOCH":"2026-03-02T17:28:09.615648","MEAN_MOTION":14.48118555,"ECCENTRICITY":0.01885515,"INCLINATION":73.9488,"RA_OF_ASC_NODE":174.0426,"ARG_OF_PERICENTER":252.0645,"MEAN_ANOMALY":105.988,"EPHEMERIS_TYPE":0,"CLASSIFICATION_TYPE":"U","NORAD_CAT_ID":34412,"ELEMENT_SET_NO":999,"REV_AT_EPOCH":88808,"BSTAR":0.001190868,"MEAN_MOTION_DOT":5.522e-5,"MEAN_MOTION_DDOT":0},{"OBJECT_NAME":"COSMOS 2251 DEB","OBJECT_ID":"1993-036RE","EPOCH":"2026-03-02T13:27:02.655360","MEAN_MOTION":14.29753942,"ECCENTRICITY":0.0090028,"INCLINATION":74.0298,"RA_OF_ASC_NODE":119.8345,"ARG_OF_PERICENTER":181.2103,"MEAN_ANOMALY":308.828,"EPHEMERIS_TYPE":0,"CLASSIFICATION_TYPE":"U","NORAD_CAT_ID":34413,"ELEMENT_SET_NO":999,"REV_AT_EPOCH":88271,"BSTAR":0.0010649,"MEAN_MOTION_DOT":2.832e-5,"MEAN_MOTION_DDOT":0},{"OBJECT_NAME":"COSMOS 2251 DEB","OBJECT_ID":"1993-036RM","EPOCH":"2026-03-03T03:43:16.764960","MEAN_MOTION":14.68512614,"ECCENTRICITY":0.0104384,"INCLINATION":74.0334,"RA_OF_ASC_NODE":308.3875,"ARG_OF_PERICENTER":48.0335,"MEAN_ANOMALY":107.4032,"EPHEMERIS_TYPE":0,"CLASSIFICATION_TYPE":"U","NORAD_CAT_ID":34420,"ELEMENT_SET_NO":999,"REV_AT_EPOCH":90950,"BSTAR":0.0001997,"MEAN_MOTION_DOT":1.223e-5,"MEAN_MOTION_DDOT":0},{"OBJECT_NAME":"COSMOS 2251 DEB","OBJECT_ID":"1993-036RS","EPOCH":"2026-03-02T23:01:31.106784","MEAN_MOTION":14.62673998,"ECCENTRICITY":0.0025525,"INCLINATION":74.0162,"RA_OF_ASC_NODE":260.6831,"ARG_OF_PERICENTER":2.6977,"MEAN_ANOMALY":357.4323,"EPHEMERIS_TYPE":0,"CLASSIFICATION_TYPE":"U","NORAD_CAT_ID":34425,"ELEMENT_SET_NO":999,"REV_AT_EPOCH":89913,"BSTAR":0.00051061,"MEAN_MOTION_DOT":2.581e-5,"MEAN_MOTION_DDOT":0},{"OBJECT_NAME":"COSMOS 2251 DEB","OBJECT_ID":"1993-036RX","EPOCH":"2026-03-02T15:57:30.212928","MEAN_MOTION":14.39892935,"ECCENTRICITY":0.00611521,"INCLINATION":74.0519,"RA_OF_ASC_NODE":155.8686,"ARG_OF_PERICENTER":208.6805,"MEAN_ANOMALY":151.0983,"EPHEMERIS_TYPE":0,"CLASSIFICATION_TYPE":"U","NORAD_CAT_ID":34430,"ELEMENT_SET_NO":999,"REV_AT_EPOCH":89105,"BSTAR":0.00048673595,"MEAN_MOTION_DOT":1.537e-5,"MEAN_MOTION_DDOT":0},{"OBJECT_NAME":"COSMOS 2251 DEB","OBJECT_ID":"1993-036RY","EPOCH":"2026-03-02T22:33:09.022464","MEAN_MOTION":14.29072103,"ECCENTRICITY":0.0067548,"INCLINATION":74.0759,"RA_OF_ASC_NODE":29.9911,"ARG_OF_PERICENTER":353.0058,"MEAN_ANOMALY":7.0141,"EPHEMERIS_TYPE":0,"CLASSIFICATION_TYPE":"U","NORAD_CAT_ID":34431,"ELEMENT_SET_NO":999,"REV_AT_EPOCH":88288,"BSTAR":0.00083378,"MEAN_MOTION_DOT":2.14e-5,"MEAN_MOTION_DDOT":0}]
