COSMOS 2251 DEB         
1 34343U 93036PR  26062.09386631  .00007748  00000+0  12605-2 0  9991
2 34343  74.0188 293.5398 0022782 191.0695 289.9512 14.71037037899115
COSMOS 2251 DEB         
1 34344U 93036PS  26061.92998226  .00003313  00000+0  14754-2 0  9993
2 34344  73.9794 327.1096 0154568 134.2341 356.3304 14.17039121872329
COSMOS 2251 DEB         
1 34346U 93036PU  26061.35941193  .00001302  00000+0  74709-3 0  9996
2 34346  73.9941 174.0499 0208663 334.4620  80.2087 14.00009325865240
COSMOS 2251 DEB         
1 34383U 93036PY  26062.15674481  .00082556  00000+0  36375-2 0  9995
2 34383  74.0265 130.4012 0013254 294.5650  93.1603 15.21333405903319
COSMOS 2251 DEB         
1 34387U 93036QC  26062.09343455  .00001057  00000+0  31411-3 0  9990
2 34387  74.0388  62.5117 0036870 143.3482 280.7209 14.44047328893418
COSMOS 2251 DEB         
1 34388U 93036QD  26062.12722429  .00002849  00000+0  74374-3 0  9992
2 34388  74.0372  72.2707 0010060 107.7267 320.1728 14.49887756893207
COSMOS 2251 DEB         
1 34389U 93036QE  26062.14920953  .00001158  00000+0  36071-3 0  9991
2 34389  74.0166 100.6865 0029884 199.9301 216.8040 14.41773110891718
COSMOS 2251 DEB         
1 34396U 93036QM  26062.15970229  .00014362  00000+0  20412-2 0  9993
2 34396  74.0305 326.6397 0004899 329.7477 180.5252 14.76917644895320
COSMOS 2251 DEB         
1 34409U 93036RA  26061.70080106  .00001257  00000+0  26684-3 0  9991
2 34409  74.0637 154.9512 0080722 210.4194 274.5045 14.58236681903582
COSMOS 2251 DEB         
1 34410U 93036RB  26061.50876540  .00080786  00000+0  27715-2 0  9995
2 34410  73.7306  90.4681 0026378 279.9186  79.9037 15.29440376909897
COSMOS 2251 DEB         
1 34412U 93036RD  26061.72788907  .00005522  00000+0  11909-2 0  9993
2 34412  73.9488 174.0426 0188551 252.0645 105.9880 14.48118555888086
COSMOS 2251 DEB         
1 34413U 93036RE  26061.56044740  .00002832  00000+0  10649-2 0  9997
2 34413  74.0298 119.8345 0090028 181.2103 308.8280 14.29753942882714
COSMOS 2251 DEB         
1 34420U 93036RM  26062.15505515  .00001223  00000+0  19970-3 0  9993
2 34420  74.0334 308.3875 0104384  48.0335 107.4032 14.68512614909501
COSMOS 2251 DEB         
1 34425U 93036RS  26061.95938781  .00002581  00000+0  51061-3 0  9995
2 34425  74.0162 260.6831 0025525   2.6977 357.4323 14.62673998899138
COSMOS 2251 DEB         
1 34430U 93036RX  26061.66493302  .00001537  00000+0  48674-3 0  9990
2 34430  74.0519 155.8686 0061152 208.6805 151.0983 14.39892935891058
COSMOS 2251 DEB         
1 34431U 93036RY  26061.93968776  .00002140  00000+0  83378-3 0  9994
2 34431  74.0759  29.9911 0067548 353.0058   7.0141 14.29072103882880
